[
    {
        "CCSDS_OMM_VERS": "3.0",
        "COMMENT": "GENERATED VIA SPACE-TRACK.ORG API",
        "CREATION_DATE": "2025-03-01T17:52:32",
        "ORIGINATOR": "18 SPCS",
        "OBJECT_NAME": "GALILEO 11 (268)",
        "OBJECT_ID": "2015-079B",
        "CENTER_NAME": "EARTH",
        "REF_FRAME": "TEME",
        "TIME_SYSTEM": "UTC",
        "MEAN_ELEMENT_THEORY": "SGP4",
        "EPOCH": "2025-03-01T11:20:00.430080",
        "MEAN_MOTION": "1.70474496",
        "ECCENTRICITY": "0.00038440",
        "INCLINATION": "55.5466",
        "RA_OF_ASC_NODE": "114.2396",
        "ARG_OF_PERICENTER": "311.0044",
        "MEAN_ANOMALY": "49.0554",
        "EPHEMERIS_TYPE": "0",
        "CLASSIFICATION_TYPE": "U",
        "NORAD_CAT_ID": "41175",
        "ELEMENT_SET_NO": "999",
        "REV_AT_EPOCH": "5713",
        "BSTAR": "0.00000000000000",
        "MEAN_MOTION_DOT": "0.00000029",
        "MEAN_MOTION_DDOT": "0.0000000000000",
        "SEMIMAJOR_AXIS": "29600.263",
        "PERIOD": "844.701",
        "APOAPSIS": "23233.506",
        "PERIAPSIS": "23210.749",
        "OBJECT_TYPE": "PAYLOAD",
        "RCS_SIZE": "LARGE",
        "COUNTRY_CODE": "ESA",
        "LAUNCH_DATE": "2015-12-17",
        "SITE": "FRGUI",
        "DECAY_DATE": null,
        "FILE": "4656182",
        "GP_ID": "282002920",
        "TLE_LINE0": "0 GALILEO 11 (268)",
        "TLE_LINE1": "1 41175U 15079B   25060.47222720  .00000029  00000-0  00000-0 0  9990",
        "TLE_LINE2": "2 41175  55.5466 114.2396 0003844 311.0044  49.0554  1.70474496 57134"
    }
]